{
    "links": {
        "self": "http://www.neowsapp.com/rest/v1/neo/3879191?api_key=iIulBulltgU6a56xZRHN4H3l9WmuAYTsLGpBGhQ2"
    },
    "id": "3879191",
    "neo_reference_id": "3879191",
    "name": "(2019 TT7)",
    "designation": "2019 TT7",
    "nasa_jpl_url": "http://ssd.jpl.nasa.gov/sbdb.cgi?sstr=3879191",
    "absolute_magnitude_h": 22.5,
    "estimated_diameter": {
        "kilometers": {
            "estimated_diameter_min": 0.0840533402,
            "estimated_diameter_max": 0.1879489824
        },
        "meters": {
            "estimated_diameter_min": 84.0533402073,
            "estimated_diameter_max": 187.9489824394
        },
        "miles": {
            "estimated_diameter_min": 0.0522283081,
            "estimated_diameter_max": 0.1167860472
        },
        "feet": {
            "estimated_diameter_min": 275.7655606856,
            "estimated_diameter_max": 616.6305395464
        }
    },
    "is_potentially_hazardous_asteroid": false,
    "close_approach_data": [
        {
            "close_approach_date": "2019-10-12",
            "close_approach_date_full": "2019-Oct-12 02:30",
            "epoch_date_close_approach": 1570847400000,
            "relative_velocity": {
                "kilometers_per_second": "2.174033092",
                "kilometers_per_hour": "7826.5191310413",
                "miles_per_hour": "4863.0946233962"
            },
            "miss_distance": {
                "astronomical": "0.3882364863",
                "lunar": "151.0239931707",
                "kilometers": "58079351.406764181",
                "miles": "36088835.5026244578"
            },
            "orbiting_body": "Earth"
        }
    ],
    "orbital_data": {
        "orbit_id": "2",
        "orbit_determination_date": "2019-11-01 08:13:03",
        "first_observation_date": "2019-10-05",
        "last_observation_date": "2019-10-31",
        "data_arc_in_days": 26,
        "observations_used": 15,
        "orbit_uncertainty": "8",
        "minimum_orbit_intersection": ".26385",
        "jupiter_tisserand_invariant": "3.504",
        "epoch_osculation": "2458763.5",
        "eccentricity": ".4372017403138169",
        "semi_major_axis": "2.233276622909873",
        "inclination": "4.861597624681013",
        "ascending_node_longitude": "131.0938076840018",
        "orbital_period": "1219.023861644837",
        "perihelion_distance": "1.256884196771513",
        "perihelion_argument": "232.5622809069561",
        "aphelion_distance": "3.209669049048234",
        "perihelion_time": "2458736.751158711442",
        "mean_anomaly": "7.8994211408525",
        "mean_motion": ".2953182553081853",
        "equinox": "J2000",
        "orbit_class": {
            "orbit_class_type": "AMO",
            "orbit_class_description": "Near-Earth asteroid orbits similar to that of 1221 Amor",
            "orbit_class_range": "1.017 AU < q (perihelion) < 1.3 AU"
        }
    },
    "is_sentry_object": false
}